{
  "norad_id": 53901,
  "name": "STARLINK-5024",
  "history": [
    {
      "epoch": "2026-03-29T03:54:57.531168",
      "apogee_km": 279.90070368087345,
      "perigee_km": 267.6186416644505,
      "latitude_deg": -53.141607399947844,
      "longitude_deg": 41.763923519989476,
      "semi_major_axis_km": 6651.896672672662,
      "eccentricity": 0.0009232,
      "inclination_deg": 53.1969,
      "raan_deg": 143.3313,
      "arg_perigee_deg": 22.2346,
      "mean_anomaly_deg": 337.9085,
      "mean_motion_rev_day": 16.00237783
    }
  ]
}